{"type": "FeatureCollection", "features": [{"type": "Feature", "geometry": {"type": "Point", "coordinates": [113.94201466000004, 22.32189716000005]}, "properties": {"station_code": "AWE", "station_ids": ["56.0"], "name_en": "AsiaWorld-Expo", "name_zh": "博覽館", "lines": ["AEL"], "interchange": false, "exits": ["Exit A", "Exit B"], "platforms": ["0"], "venue_id": "e0bef49c-95a1-4258-bbb2-e736df36e413", "bbox": [113.94011221000005, 22.32146711000007, 113.94391711000003, 22.322327210000026]}}, {"type": "Feature", "geometry": {"type": "Point", "coordinates": [113.93646936000005, 22.31590496000004]}, "properties": {"station_code": "AIR", "station_ids": ["47.0"], "name_en": "Airport", "name_zh": "機場", "lines": ["AEL"], "interchange": false, "exits": ["Exit A", "Exit B", "Exit C", "Exit D", "Exit E"], "platforms": ["1", "2"], "venue_id": "317e8046-6466-4c8f-9d3b-228b2494c28c", "bbox": [113.93579691000002, 22.314430010000024, 113.93714181000007, 22.317379910000056]}}, {"type": "Feature", "geometry": {"type": "Point", "coordinates": [114.10702886000007, 22.358324760000045]}, "properties": {"station_code": "TSY", "station_ids": ["42.0", "46.0"], "name_en": "Tsing Yi", "name_zh": "青衣", "lines": ["AEL", "TCL"], "interchange": true, "exits": ["Exit A1", "Exit A2", "Exit B", "Exit C", "Exit F", "Exit G"], "platforms": ["1", "3", "4"], "venue_id": "6e41ff22-45dc-4caf-94a0-146dcca99c4b", "bbox": [114.10549251000009, 22.35736201000003, 114.10856521000005, 22.35928751000006]}}, {"type": "Feature", "geometry": {"type": "Point", "coordinates": [114.16173271000008, 22.30478690000004]}, "properties": {"station_code": "KOW", "station_ids": ["40.0", "45.0"], "name_en": "Kowloon", "name_zh": "九龍", "lines": ["AEL", "TCL"], "interchange": true, "exits": ["Exit A", "Exit B", "Exit C1", "Exit C2", "Exit D1", "Exit D2", "Exit E1", "Exit E2", "Exit E3", "Exit E4", "Exit E5", "Exit E6"], "platforms": ["2", "3", "4"], "venue_id": "70953f5a-ae60-46e5-9b63-68ccef5a9329", "bbox": [114.15990408000005, 22.302644910000026, 114.16356134000011, 22.30692889000005]}}, {"type": "Feature", "geometry": {"type": "Point", "coordinates": [114.15815400500009, 22.28468735000004]}, "properties": {"station_code": "HOK", "station_ids": ["39.0", "44.0"], "name_en": "Hong Kong", "name_zh": "香港", "lines": ["AEL", "TCL"], "interchange": true, "exits": ["Exit A", "Exit B1", "Exit B2", "Exit C", "Exit D", "Exit E", "Exit F"], "platforms": ["1", "3", "4"], "venue_id": "3c17605d-df03-4b09-90f5-bbca8cf1294d", "bbox": [114.15630840000006, 22.282715040000028, 114.15999961000011, 22.286659660000055]}}, {"type": "Feature", "geometry": {"type": "Point", "coordinates": [114.02894721000007, 22.33188996000007]}, "properties": {"station_code": "SUN", "station_ids": ["54.0"], "name_en": "Sunny Bay", "name_zh": "欣澳", "lines": ["DRL", "TCL"], "interchange": true, "exits": ["Exit A"], "platforms": ["1", "2", "3"], "venue_id": "ebbf8c2d-07ba-4a88-a964-56135c58efd8", "bbox": [114.02803561000007, 22.331042410000066, 114.02985881000006, 22.332737510000072]}}, {"type": "Feature", "geometry": {"type": "Point", "coordinates": [114.04490675500006, 22.31539384000004]}, "properties": {"station_code": "DIS", "station_ids": ["55.0"], "name_en": "Disneyland Resort", "name_zh": "迪士尼", "lines": ["DRL"], "interchange": false, "exits": ["Exit A"], "platforms": ["1"], "venue_id": "754cddfd-8620-4b6e-9e1e-efd787d010bf", "bbox": [114.04364498000007, 22.315173680000044, 114.04616853000005, 22.31561400000004]}}, {"type": "Feature", "geometry": {"type": "Point", "coordinates": [114.11371006000002, 22.52806736000005]}, "properties": {"station_code": "LOW", "station_ids": ["76.0"], "name_en": "Lo Wu", "name_zh": "羅湖", "lines": ["EAL"], "interchange": false, "exits": ["Exit A"], "platforms": ["1", "4"], "venue_id": "87e485be-80e6-417f-be17-2bb89ca4d444", "bbox": [114.11282311000002, 22.525934410000048, 114.11459701000001, 22.530200310000055]}}, {"type": "Feature", "geometry": {"type": "Point", "coordinates": [114.12785846000003, 22.501382560000025]}, "properties": {"station_code": "SHS", "station_ids": ["75.0"], "name_en": "Sheung Shui", "name_zh": "上水", "lines": ["EAL"], "interchange": false, "exits": ["Exit A1", "Exit A2", "Exit A3", "Exit A4", "Exit B1", "Exit B2", "Exit C", "Exit D1", "Exit D2", "Exit D3", "Exit E"], "platforms": ["1", "2"], "venue_id": "74cb1742-b058-4bfc-a929-f962a4925fec", "bbox": [114.12660801000004, 22.500291310000023, 114.12910891000001, 22.502473810000026]}}, {"type": "Feature", "geometry": {"type": "Point", "coordinates": [114.13865056000009, 22.492132260000062]}, "properties": {"station_code": "FAN", "station_ids": ["74.0"], "name_en": "Fanling", "name_zh": "粉嶺", "lines": ["EAL"], "interchange": false, "exits": ["Exit A1", "Exit A2", "Exit A3", "Exit B", "Exit C"], "platforms": ["1", "2"], "venue_id": "a53f1496-d416-45e2-8ea4-14db1b6cff8b", "bbox": [114.13749751000012, 22.49114091000007, 114.13980361000006, 22.493123610000055]}}, {"type": "Feature", "geometry": {"type": "Point", "coordinates": [114.16106841000004, 22.451057760000054]}, "properties": {"station_code": "TWO", "station_ids": ["73.0"], "name_en": "Tai Wo", "name_zh": "太和", "lines": ["EAL"], "interchange": false, "exits": ["Exit A", "Exit B"], "platforms": ["1", "2"], "venue_id": "7b7fd72b-7438-463d-91be-f0a02689e4d8", "bbox": [114.16001381000001, 22.449954410000032, 114.16212301000007, 22.452161110000077]}}, {"type": "Feature", "geometry": {"type": "Point", "coordinates": [114.17055771000003, 22.44448021000005]}, "properties": {"station_code": "TAP", "station_ids": ["72.0"], "name_en": "Tai Po Market", "name_zh": "大埔墟", "lines": ["EAL"], "interchange": false, "exits": ["Exit A1", "Exit A2", "Exit A3", "Exit B"], "platforms": ["1", "3"], "venue_id": "b44cf139-5938-408b-af48-649dfd09694e", "bbox": [114.16909621000002, 22.44410191000003, 114.17201921000003, 22.444858510000074]}}, {"type": "Feature", "geometry": {"type": "Point", "coordinates": [114.21032526000005, 22.413623810000047]}, "properties": {"station_code": "UNI", "station_ids": ["71.0"], "name_en": "University", "name_zh": "大學", "lines": ["EAL"], "interchange": false, "exits": ["Exit A", "Exit B", "Exit C", "Exit D"], "platforms": ["1", "2"], "venue_id": "915de180-af75-4fac-a3a6-b8371cf18015", "bbox": [114.20980821, 22.412126210000054, 114.21084231000009, 22.41512141000004]}}, {"type": "Feature", "geometry": {"type": "Point", "coordinates": [114.19835351000006, 22.395607460000065]}, "properties": {"station_code": "FOT", "station_ids": ["69.0"], "name_en": "Fo Tan", "name_zh": "火炭", "lines": ["EAL"], "interchange": false, "exits": ["Exit A", "Exit B", "Exit C", "Exit D"], "platforms": ["1", "2", "3", "4"], "venue_id": "9dae5db2-0149-4f34-9828-fe562af634cd", "bbox": [114.19748521000008, 22.39438351000007, 114.19922181000004, 22.39683141000006]}}, {"type": "Feature", "geometry": {"type": "Point", "coordinates": [114.18736211000004, 22.382463560000048]}, "properties": {"station_code": "SHT", "station_ids": ["68.0"], "name_en": "Sha Tin", "name_zh": "沙田", "lines": ["EAL"], "interchange": false, "exits": ["Exit A1", "Exit A2", "Exit A3", "Exit A4", "Exit B"], "platforms": ["1", "2", "3", "4"], "venue_id": "1aaf245e-3643-49f4-b56f-4461026ee8d7", "bbox": [114.18634181000004, 22.381146210000054, 114.18838241000003, 22.38378091000004]}}, {"type": "Feature", "geometry": {"type": "Point", "coordinates": [114.17836511000002, 22.37306491000004]}, "properties": {"station_code": "TAW", "station_ids": ["67.0"], "name_en": "Tai Wai", "name_zh": "大圍", "lines": ["EAL", "TML"], "interchange": true, "exits": ["Exit A", "Exit B", "Exit C", "Exit D", "Exit E", "Exit F", "Exit G", "Exit H"], "platforms": ["1", "2", "3", "4"], "venue_id": "e279ca60-ec56-4186-8839-09c0048f60c2", "bbox": [114.17703381000001, 22.37209181000003, 114.17969641000002, 22.37403801000005]}}, {"type": "Feature", "geometry": {"type": "Point", "coordinates": [114.17667566000011, 22.33711721000003]}, "properties": {"station_code": "KOT", "station_ids": ["8.0"], "name_en": "Kowloon Tong", "name_zh": "九龍塘", "lines": ["EAL", "KTL"], "interchange": true, "exits": ["Exit A1", "Exit A2", "Exit B", "Exit C1", "Exit C2", "Exit D", "Exit E", "Exit F", "Exit G1", "Exit G2", "Exit H"], "platforms": ["1", "2"], "venue_id": "93187202-7a40-4906-b7e4-1e56c37562db", "bbox": [114.17494961000011, 22.335801610000033, 114.17840171000012, 22.33843281000003]}}, {"type": "Feature", "geometry": {"type": "Point", "coordinates": [114.17271160000007, 22.322162030000072]}, "properties": {"station_code": "MKK", "station_ids": ["65.0"], "name_en": "Mong Kok East", "name_zh": "旺角東", "lines": ["EAL"], "interchange": false, "exits": ["Exit A", "Exit B", "Exit C", "Exit D"], "platforms": ["1", "2", "3"], "venue_id": "9a64c7d4-17fd-4ae9-954c-34ebbcaf2645", "bbox": [114.17241897000008, 22.32052168000007, 114.17300423000006, 22.323802380000075]}}, {"type": "Feature", "geometry": {"type": "Point", "coordinates": [114.18180951000005, 22.30243999500007]}, "properties": {"station_code": "HUH", "station_ids": ["64.0"], "name_en": "Hung Hom", "name_zh": "紅磡", "lines": ["EAL", "TML"], "interchange": true, "exits": ["Exit A1", "Exit A2", "Exit A3", "Exit B1", "Exit B2", "Exit C1", "Exit C2", "Exit C3", "Exit D1", "Exit D2", "Exit D3", "Exit D4", "Exit D5", "Exit D6"], "platforms": ["1", "2", "3", "4"], "venue_id": "8769ac7e-21b4-4e9f-b776-7490f7689f32", "bbox": [114.18090813000003, 22.300737060000074, 114.18271089000007, 22.30414293000007]}}, {"type": "Feature", "geometry": {"type": "Point", "coordinates": [114.17519170500009, 22.281607620000045]}, "properties": {"station_code": "EXC", "station_ids": ["94.0"], "name_en": "Exhibition Centre", "name_zh": "會展", "lines": ["EAL"], "interchange": false, "exits": ["Exit A1", "Exit A2", "Exit A3", "Exit B1", "Exit B2", "Exit B3"], "platforms": ["1", "2"], "venue_id": "bb1466c3-88d5-4a48-981d-fc0d50b36ee4", "bbox": [114.17318467000007, 22.28120184000005, 114.17719874000011, 22.28201340000004]}}, {"type": "Feature", "geometry": {"type": "Point", "coordinates": [114.1659560600001, 22.27838377000006]}, "properties": {"station_code": "ADM", "station_ids": ["2.0"], "name_en": "Admiralty", "name_zh": "金鐘", "lines": ["EAL", "ISL", "SIL", "TWL"], "interchange": true, "exits": ["Exit A", "Exit B", "Exit C1", "Exit C2", "Exit D", "Exit E1", "Exit E2", "Exit F"], "platforms": ["1", "2", "3", "4", "5", "6", "7", "8"], "venue_id": "b9b2f6ff-582d-40b0-b82d-027e950e6791", "bbox": [114.1634542600001, 22.276871380000046, 114.1684578600001, 22.279896160000078]}}, {"type": "Feature", "geometry": {"type": "Point", "coordinates": [114.0656820100001, 22.515001210000065]}, "properties": {"station_code": "LMC", "station_ids": ["78.0"], "name_en": "Lok Ma Chau", "name_zh": "落馬洲", "lines": ["EAL"], "interchange": false, "exits": [], "platforms": ["1", "2"], "venue_id": "88d9cab3-a32d-4a77-985d-4f12d49e9c9e", "bbox": [114.0640840100001, 22.51418761000008, 114.0672800100001, 22.51581481000005]}}, {"type": "Feature", "geometry": {"type": "Point", "coordinates": [114.23712379000006, 22.264598610000064]}, "properties": {"station_code": "CHW", "station_ids": ["37.0"], "name_en": "Chai Wan", "name_zh": "柴灣", "lines": ["ISL"], "interchange": false, "exits": ["Exit A", "Exit B", "Exit C", "Exit D", "Exit E"], "platforms": ["1", "2"], "venue_id": "e693ee01-7b5b-42fb-a329-d864b751f114", "bbox": [114.23659118, 22.263713580000058, 114.2376564000001, 22.26548364000007]}}, {"type": "Feature", "geometry": {"type": "Point", "coordinates": [114.23963259500005, 22.276540855000036]}, "properties": {"station_code": "HFC", "station_ids": ["36.0"], "name_en": "Heng Fa Chuen", "name_zh": "杏花邨", "lines": ["ISL"], "interchange": false, "exits": ["Exit A1", "Exit A2"], "platforms": ["1", "2"], "venue_id": "b5fa5f79-7c3d-4488-8dcd-c749d03f0e60", "bbox": [114.23899929000004, 22.27581988000003, 114.24026590000005, 22.277261830000043]}}, {"type": "Feature", "geometry": {"type": "Point", "coordinates": [114.22906640000008, 22.27954875000006]}, "properties": {"station_code": "SKW", "station_ids": ["35.0"], "name_en": "Shau Kei Wan", "name_zh": "筲箕灣", "lines": ["ISL"], "interchange": false, "exits": ["Exit A1", "Exit A2", "Exit A3", "Exit B1", "Exit B2", "Exit B3", "Exit C", "Exit D1", "Exit D2"], "platforms": ["1", "2"], "venue_id": "b891c479-a877-4618-869a-a1c9804390e4", "bbox": [114.22807808000005, 22.278614550000043, 114.23005472000011, 22.280482950000078]}}, {"type": "Feature", "geometry": {"type": "Point", "coordinates": [114.22203738500002, 22.282006910000035]}, "properties": {"station_code": "SWH", "station_ids": ["34.0"], "name_en": "Sai Wan Ho", "name_zh": "西灣河", "lines": ["ISL"], "interchange": false, "exits": ["Exit A", "Exit B"], "platforms": ["1", "2"], "venue_id": "a952cd87-e82a-4104-951e-5ad9b45fe525", "bbox": [114.22106752000002, 22.280970000000025, 114.22300725000002, 22.283043820000046]}}, {"type": "Feature", "geometry": {"type": "Point", "coordinates": [114.21621015500006, 22.285161620000054]}, "properties": {"station_code": "TAK", "station_ids": ["33.0"], "name_en": "Tai Koo", "name_zh": "太古", "lines": ["ISL"], "interchange": false, "exits": ["Exit A1", "Exit A2", "Exit B", "Exit C", "Exit D1", "Exit D2", "Exit E1", "Exit E2", "Exit E3"], "platforms": ["1", "2"], "venue_id": "48f67114-1d14-47c3-8254-1384edfeb8cb", "bbox": [114.2149423400001, 22.28424780000006, 114.21747797, 22.286075440000047]}}, {"type": "Feature", "geometry": {"type": "Point", "coordinates": [114.20894645500005, 22.28877447000005]}, "properties": {"station_code": "QUB", "station_ids": ["32.0"], "name_en": "Quarry Bay", "name_zh": "鰂魚涌", "lines": ["ISL", "TKL"], "interchange": true, "exits": ["Exit A", "Exit B", "Exit C"], "platforms": ["1", "2", "3", "4"], "venue_id": "c9912e53-b334-40dc-beba-b5ac7530f2ba", "bbox": [114.20748677000006, 22.28693054000007, 114.21040614000003, 22.290618400000028]}}, {"type": "Feature", "geometry": {"type": "Point", "coordinates": [114.20047592000009, 22.29115392500006]}, "properties": {"station_code": "NOP", "station_ids": ["31.0"], "name_en": "North Point", "name_zh": "北角", "lines": ["ISL", "TKL"], "interchange": true, "exits": ["Exit A1", "Exit A2", "Exit A3", "Exit A4", "Exit B1", "Exit B2", "Exit B3", "Exit B4"], "platforms": ["1", "2", "3", "4"], "venue_id": "95dc7e53-be42-4fe2-b345-31836a016345", "bbox": [114.1989228000001, 22.290061940000044, 114.20202904000007, 22.292245910000076]}}, {"type": "Feature", "geometry": {"type": "Point", "coordinates": [114.19375932500003, 22.287698465000034]}, "properties": {"station_code": "FOH", "station_ids": ["30.0"], "name_en": "Fortress Hill", "name_zh": "炮台山", "lines": ["ISL"], "interchange": false, "exits": ["Exit A", "Exit B"], "platforms": ["1", "2"], "venue_id": "d02d9f12-06a1-4268-89cc-36a64970215e", "bbox": [114.19300195000005, 22.286434050000025, 114.19451670000001, 22.288962880000042]}}, {"type": "Feature", "geometry": {"type": "Point", "coordinates": [114.19181094000004, 22.28225126500007]}, "properties": {"station_code": "TIH", "station_ids": ["29.0"], "name_en": "Tin Hau", "name_zh": "天后", "lines": ["ISL"], "interchange": false, "exits": ["Exit A1", "Exit A2", "Exit B"], "platforms": ["1", "2"], "venue_id": "702fd880-192f-49a0-9daf-ad10c7eae5af", "bbox": [114.19084682000005, 22.281239760000062, 114.19277506000003, 22.28326277000008]}}, {"type": "Feature", "geometry": {"type": "Point", "coordinates": [114.18386920000006, 22.279579725000048]}, "properties": {"station_code": "CAB", "station_ids": ["28.0"], "name_en": "Causeway Bay", "name_zh": "銅鑼灣", "lines": ["ISL"], "interchange": false, "exits": ["Exit A", "Exit B", "Exit C", "Exit D1", "Exit D2", "Exit D3", "Exit D4", "Exit E", "Exit F1", "Exit F2"], "platforms": ["1", "2"], "venue_id": "402d0a0a-e6df-4a19-952d-6fc371dedc2e", "bbox": [114.18233544000009, 22.278412970000034, 114.18540296000003, 22.28074648000006]}}, {"type": "Feature", "geometry": {"type": "Point", "coordinates": [114.1729163550001, 22.277236925000068]}, "properties": {"station_code": "WAC", "station_ids": ["27.0"], "name_en": "Wan Chai", "name_zh": "灣仔", "lines": ["ISL"], "interchange": false, "exits": ["Exit A1", "Exit A2", "Exit A3", "Exit A4", "Exit A5", "Exit B1", "Exit B2", "Exit C", "Exit D"], "platforms": ["1", "2"], "venue_id": "43da5fe6-74dd-452a-9515-a6a97b453c2c", "bbox": [114.17194035000011, 22.276387940000063, 114.17389236000008, 22.278085910000073]}}, {"type": "Feature", "geometry": {"type": "Point", "coordinates": [114.15924279500007, 22.28189474000007]}, "properties": {"station_code": "CEN", "station_ids": ["1.0"], "name_en": "Central", "name_zh": "中環", "lines": ["ISL", "TWL"], "interchange": true, "exits": ["Exit A", "Exit B", "Exit C", "Exit D1", "Exit D2", "Exit E", "Exit F", "Exit G", "Exit H", "Exit J1", "Exit J2", "Exit J3", "Exit K", "Exit L"], "platforms": ["1", "2", "3", "4"], "venue_id": "036868f9-cb36-44ae-b1ee-7c18bb12dbed", "bbox": [114.15702853000005, 22.280897550000077, 114.16145706000009, 22.282891930000062]}}, {"type": "Feature", "geometry": {"type": "Point", "coordinates": [114.15150007500006, 22.286854935000065]}, "properties": {"station_code": "SHW", "station_ids": ["26.0"], "name_en": "Sheung Wan", "name_zh": "上環", "lines": ["ISL"], "interchange": false, "exits": ["Exit A1", "Exit A2", "Exit B", "Exit C", "Exit D", "Exit E1", "Exit E2", "Exit E3", "Exit E4", "Exit E5"], "platforms": ["1", "2"], "venue_id": "404efe33-0d74-4c3e-972e-5f46339c10e8", "bbox": [114.14905392000003, 22.285835570000074, 114.15394623000009, 22.287874300000055]}}, {"type": "Feature", "geometry": {"type": "Point", "coordinates": [114.14308517500001, 22.28609156500005]}, "properties": {"station_code": "SYP", "station_ids": ["81.0"], "name_en": "Sai Ying Pun", "name_zh": "西營盤", "lines": ["ISL"], "interchange": false, "exits": ["Exit A1", "Exit A2", "Exit B1", "Exit B2", "Exit B3", "Exit C"], "platforms": ["1", "2"], "venue_id": "cda69869-c3be-42f3-8fb4-a7cbb2fe97f5", "bbox": [114.14143931000001, 22.28442701000006, 114.14473104000001, 22.28775612000004]}}, {"type": "Feature", "geometry": {"type": "Point", "coordinates": [114.13474628500006, 22.284562460000046]}, "properties": {"station_code": "HKU", "station_ids": ["82.0"], "name_en": "HKU", "name_zh": "香港大學", "lines": ["ISL"], "interchange": false, "exits": ["Exit A1", "Exit A2", "Exit B1", "Exit B2", "Exit C1", "Exit C2"], "platforms": ["1", "2"], "venue_id": "5cab92ff-37ac-40ac-97f4-6507b318ff3c", "bbox": [114.13255433000006, 22.283214620000024, 114.13693824000006, 22.28591030000007]}}, {"type": "Feature", "geometry": {"type": "Point", "coordinates": [114.12852850500008, 22.28139994500006]}, "properties": {"station_code": "KET", "station_ids": ["83.0"], "name_en": "Kennedy Town", "name_zh": "堅尼地城", "lines": ["ISL"], "interchange": false, "exits": ["Exit A", "Exit B", "Exit C"], "platforms": ["1", "2"], "venue_id": "6f0e1339-7f9b-4024-abed-a462006568bc", "bbox": [114.12744242000008, 22.28090583000005, 114.12961459000007, 22.28189406000007]}}, {"type": "Feature", "geometry": {"type": "Point", "coordinates": [114.2522649600001, 22.30394731000004]}, "properties": {"station_code": "TIK", "station_ids": ["49.0"], "name_en": "Tiu Keng Leng", "name_zh": "調景嶺", "lines": ["KTL", "TKL"], "interchange": true, "exits": ["Exit A1", "Exit A2", "Exit B"], "platforms": ["1", "2", "3", "4"], "venue_id": "2212e1f9-9c77-429e-837d-67b918f34d03", "bbox": [114.2510010100001, 22.302849810000055, 114.25352891000011, 22.305044810000027]}}, {"type": "Feature", "geometry": {"type": "Point", "coordinates": [114.23716699000005, 22.29781424500004]}, "properties": {"station_code": "YAT", "station_ids": ["48.0"], "name_en": "Yau Tong", "name_zh": "油塘", "lines": ["KTL", "TKL"], "interchange": true, "exits": ["Exit A1", "Exit A2", "Exit B1", "Exit B2"], "platforms": ["1", "2", "3", "4"], "venue_id": "7484e00c-834d-4c13-a14b-13c5fef29415", "bbox": [114.23604582000007, 22.296385980000025, 114.23828816000002, 22.299242510000056]}}, {"type": "Feature", "geometry": {"type": "Point", "coordinates": [114.2330639600001, 22.306932110000048]}, "properties": {"station_code": "LAT", "station_ids": ["38.0"], "name_en": "Lam Tin", "name_zh": "藍田", "lines": ["KTL"], "interchange": false, "exits": ["Exit A", "Exit B", "Exit C", "Exit D1", "Exit D2"], "platforms": ["1", "2"], "venue_id": "92100263-7626-48d3-a676-529a97e87aa0", "bbox": [114.23178851000011, 22.305699310000023, 114.23433941000008, 22.308164910000073]}}, {"type": "Feature", "geometry": {"type": "Point", "coordinates": [114.22657505000006, 22.31214342000007]}, "properties": {"station_code": "KWT", "station_ids": ["15.0"], "name_en": "Kwun Tong", "name_zh": "觀塘", "lines": ["KTL"], "interchange": false, "exits": ["Exit A1", "Exit A2", "Exit B1", "Exit B2", "Exit B3", "Exit C1", "Exit C2", "Exit C3", "Exit D1", "Exit D2", "Exit D3", "Exit D4"], "platforms": ["1", "2"], "venue_id": "f9f93951-67f2-4b98-b86c-a3fec6209fe5", "bbox": [114.22558920000006, 22.311433140000076, 114.22756090000007, 22.312853700000062]}}, {"type": "Feature", "geometry": {"type": "Point", "coordinates": [114.2189221000001, 22.315501950000055]}, "properties": {"station_code": "NTK", "station_ids": ["14.0"], "name_en": "Ngau Tau Kok", "name_zh": "牛頭角", "lines": ["KTL"], "interchange": false, "exits": ["Exit A", "Exit B1", "Exit B2", "Exit B3", "Exit B4", "Exit B5", "Exit B6"], "platforms": ["1", "2"], "venue_id": "b7f1d22f-aea5-44d4-9f01-5c3fef91d7ea", "bbox": [114.21790730000009, 22.314972700000055, 114.2199369000001, 22.316031200000054]}}, {"type": "Feature", "geometry": {"type": "Point", "coordinates": [114.21408140000005, 22.32343380000006]}, "properties": {"station_code": "KOB", "station_ids": ["13.0"], "name_en": "Kowloon Bay", "name_zh": "九龍灣", "lines": ["KTL"], "interchange": false, "exits": ["Exit A", "Exit B", "Exit C"], "platforms": ["1", "2"], "venue_id": "57905483-c9d5-483c-9654-442434d20947", "bbox": [114.21376250000003, 22.322303600000055, 114.21440030000008, 22.324564000000066]}}, {"type": "Feature", "geometry": {"type": "Point", "coordinates": [114.20879903000008, 22.334806775000033]}, "properties": {"station_code": "CHH", "station_ids": ["12.0"], "name_en": "Choi Hung", "name_zh": "彩虹", "lines": ["KTL"], "interchange": false, "exits": ["Exit A1", "Exit A2", "Exit A3", "Exit B", "Exit C"], "platforms": ["1", "2", "3", "4"], "venue_id": "c87c86f8-0c3d-443c-951d-8e662ada5924", "bbox": [114.2077836200001, 22.333988060000024, 114.20981444000006, 22.33562549000004]}}, {"type": "Feature", "geometry": {"type": "Point", "coordinates": [114.20140561000005, 22.33986856000007]}, "properties": {"station_code": "DIH", "station_ids": ["11.0"], "name_en": "Diamond Hill", "name_zh": "鑽石山", "lines": ["KTL", "TML"], "interchange": true, "exits": ["Exit A1", "Exit A2", "Exit B", "Exit C1", "Exit C2"], "platforms": ["1", "2", "3", "4"], "venue_id": "65b334e5-7ed3-413c-88d1-3c04e4dcf7aa", "bbox": [114.20020741000008, 22.338662310000075, 114.20260381000003, 22.341074810000066]}}, {"type": "Feature", "geometry": {"type": "Point", "coordinates": [114.19408556000002, 22.341625460000046]}, "properties": {"station_code": "WTS", "station_ids": ["10.0"], "name_en": "Wong Tai Sin", "name_zh": "黃大仙", "lines": ["KTL"], "interchange": false, "exits": ["Exit A", "Exit B1", "Exit B2", "Exit B3", "Exit C1", "Exit C2", "Exit D1", "Exit D2", "Exit D3", "Exit E"], "platforms": ["1", "2"], "venue_id": "0556c2c1-dc84-4935-8c10-8dc36ae6c3c6", "bbox": [114.19285171000001, 22.34120211000004, 114.19531941000002, 22.34204881000005]}}, {"type": "Feature", "geometry": {"type": "Point", "coordinates": [114.1867580600001, 22.337870460000033]}, "properties": {"station_code": "LOF", "station_ids": ["9.0"], "name_en": "Lok Fu", "name_zh": "樂富", "lines": ["KTL"], "interchange": false, "exits": ["Exit A", "Exit B"], "platforms": ["1", "2"], "venue_id": "58408ed0-b485-4cb6-886e-03fb63222e1f", "bbox": [114.1856309100001, 22.33742391000004, 114.1878852100001, 22.338317010000026]}}, {"type": "Feature", "geometry": {"type": "Point", "coordinates": [114.1688489600001, 22.33182671000003]}, "properties": {"station_code": "SKM", "station_ids": ["7.0"], "name_en": "Shek Kip Mei", "name_zh": "石硤尾", "lines": ["KTL"], "interchange": false, "exits": ["Exit A", "Exit B1", "Exit B2", "Exit C"], "platforms": ["1", "2"], "venue_id": "e41c97ec-85f5-4338-9ee0-87ca1d102d16", "bbox": [114.1685285100001, 22.330865510000024, 114.16916941000011, 22.332787910000036]}}, {"type": "Feature", "geometry": {"type": "Point", "coordinates": [114.16834316, 22.32465736000003]}, "properties": {"station_code": "PRE", "station_ids": ["16.0"], "name_en": "Prince Edward", "name_zh": "太子", "lines": ["KTL", "TWL"], "interchange": true, "exits": ["Exit A", "Exit B1", "Exit B2", "Exit C1", "Exit C2", "Exit D", "Exit E"], "platforms": ["1", "2", "3", "4"], "venue_id": "981f4b9f-691a-4e64-9037-604e861dc1c4", "bbox": [114.16763341000001, 22.32344771000004, 114.16905291, 22.325867010000024]}}, {"type": "Feature", "geometry": {"type": "Point", "coordinates": [114.16936721000008, 22.319467410000044]}, "properties": {"station_code": "MOK", "station_ids": ["6.0"], "name_en": "Mong Kok", "name_zh": "旺角", "lines": ["KTL", "TWL"], "interchange": true, "exits": ["Exit A1", "Exit A2", "Exit B1", "Exit B2", "Exit B3", "Exit B4", "Exit C1", "Exit C2", "Exit C3", "Exit C4", "Exit D1", "Exit D2", "Exit D3", "Exit E1", "Exit E2"], "platforms": ["1", "2", "3", "4"], "venue_id": "f0b802fd-28b0-40e3-abff-62090becf0d4", "bbox": [114.1686410100001, 22.318217210000057, 114.17009341000005, 22.32071761000003]}}, {"type": "Feature", "geometry": {"type": "Point", "coordinates": [114.17059231000007, 22.312768960000056]}, "properties": {"station_code": "YMT", "station_ids": ["5.0"], "name_en": "Yau Ma Tei", "name_zh": "油麻地", "lines": ["KTL", "TWL"], "interchange": true, "exits": ["Exit A1", "Exit A2", "Exit B1", "Exit B2", "Exit C", "Exit D"], "platforms": ["1", "2", "3", "4"], "venue_id": "b6c4a9ba-4017-43c9-ba2e-2adaf6b22afe", "bbox": [114.17010361000007, 22.311560110000073, 114.17108101000008, 22.31397781000004]}}, {"type": "Feature", "geometry": {"type": "Point", "coordinates": [114.18267521000007, 22.31002551000006]}, "properties": {"station_code": "HOM", "station_ids": ["84.0"], "name_en": "Ho Man Tin", "name_zh": "何文田", "lines": ["KTL", "TML"], "interchange": true, "exits": ["Exit A1", "Exit A2", "Exit A3", "Exit A4", "Exit B1", "Exit B2", "Exit C"], "platforms": ["1", "2", "3", "4"], "venue_id": "3ca7be38-6c54-477d-9ae6-cf9d34886bf6", "bbox": [114.18170641000006, 22.30863731000005, 114.18364401000008, 22.311413710000068]}}, {"type": "Feature", "geometry": {"type": "Point", "coordinates": [114.19018486000004, 22.304804310000065]}, "properties": {"station_code": "WHA", "station_ids": ["85.0"], "name_en": "Whampoa", "name_zh": "黃埔", "lines": ["KTL"], "interchange": false, "exits": ["Exit  C1", "Exit  D1", "Exit  D2", "Exit A", "Exit B", "Exit C2", "Exit D"], "platforms": ["1"], "venue_id": "26a47369-fde7-40a8-96d7-d6606cfe7411", "bbox": [114.18821491000006, 22.30352491000008, 114.19215481000003, 22.306083710000053]}}, {"type": "Feature", "geometry": {"type": "Point", "coordinates": [114.24393591000006, 22.429145910000045]}, "properties": {"station_code": "WKS", "station_ids": ["103.0"], "name_en": "Wu Kai Sha", "name_zh": "烏溪沙", "lines": ["TML"], "interchange": false, "exits": ["Exit A1", "Exit A2", "Exit B"], "platforms": ["1", "2"], "venue_id": "cfe255b3-1b4d-4221-b1b9-04aca11b1b13", "bbox": [114.24279861000002, 22.428815410000027, 114.2450732100001, 22.429476410000063]}}, {"type": "Feature", "geometry": {"type": "Point", "coordinates": [114.23160726000009, 22.424794560000038]}, "properties": {"station_code": "MOS", "station_ids": ["102.0"], "name_en": "Ma On Shan", "name_zh": "馬鞍山", "lines": ["TML"], "interchange": false, "exits": ["Exit A1", "Exit A2", "Exit B"], "platforms": ["1", "2"], "venue_id": "7a2f558e-447c-401d-9a3b-bd004e3e6fdc", "bbox": [114.23051671000007, 22.424391610000043, 114.2326978100001, 22.425197510000032]}}, {"type": "Feature", "geometry": {"type": "Point", "coordinates": [114.22574826000005, 22.417504460000032]}, "properties": {"station_code": "HEO", "station_ids": ["101.0"], "name_en": "Heng On", "name_zh": "恆安", "lines": ["TML"], "interchange": false, "exits": ["Exit A", "Exit B", "Exit C"], "platforms": ["1", "2"], "venue_id": "141fd6ff-a270-423c-8702-7d887062be3d", "bbox": [114.22528881000005, 22.416531810000038, 114.22620771000004, 22.418477110000026]}}, {"type": "Feature", "geometry": {"type": "Point", "coordinates": [114.22259463000006, 22.40820744000004]}, "properties": {"station_code": "TSH", "station_ids": ["100.0"], "name_en": "Tai Shui Hang", "name_zh": "大水坑", "lines": ["TML"], "interchange": false, "exits": ["Exit A", "Exit B"], "platforms": ["1", "2"], "venue_id": "1308e337-699a-4231-810e-2d03f541b4ac", "bbox": [114.22167975000002, 22.406644810000046, 114.2235095100001, 22.409770070000036]}}, {"type": "Feature", "geometry": {"type": "Point", "coordinates": [114.20826611000007, 22.387673860000064]}, "properties": {"station_code": "SHM", "station_ids": ["99.0"], "name_en": "Shek Mun", "name_zh": "石門", "lines": ["TML"], "interchange": false, "exits": ["Exit A", "Exit B", "Exit C", "Exit D"], "platforms": ["1", "2"], "venue_id": "a91d6417-1616-4c0c-b85c-abc08479dfe7", "bbox": [114.20737511000004, 22.386848110000074, 114.20915711000009, 22.388499610000054]}}, {"type": "Feature", "geometry": {"type": "Point", "coordinates": [114.20351871000003, 22.382857310000077]}, "properties": {"station_code": "CIO", "station_ids": ["98.0"], "name_en": "City One", "name_zh": "第一城", "lines": ["TML"], "interchange": false, "exits": ["Exit A", "Exit B", "Exit C", "Exit D"], "platforms": ["1", "2"], "venue_id": "902ee513-c6d8-47d6-bee2-f404347b03f4", "bbox": [114.20272791000002, 22.382114310000077, 114.20430951000003, 22.383600310000077]}}, {"type": "Feature", "geometry": {"type": "Point", "coordinates": [114.19499195500003, 22.37703333500005]}, "properties": {"station_code": "STW", "station_ids": ["97.0"], "name_en": "Sha Tin Wai", "name_zh": "沙田圍", "lines": ["TML"], "interchange": false, "exits": ["Exit A", "Exit B", "Exit C", "Exit D"], "platforms": ["1", "2"], "venue_id": "ea43268e-8a83-44e7-849f-f90c6d19a369", "bbox": [114.19410374000006, 22.37636512000006, 114.19588017000001, 22.37770155000004]}}, {"type": "Feature", "geometry": {"type": "Point", "coordinates": [114.18617391000004, 22.374768260000053]}, "properties": {"station_code": "CKT", "station_ids": ["96.0"], "name_en": "Che Kung Temple", "name_zh": "車公廟", "lines": ["TML"], "interchange": false, "exits": ["Exit A", "Exit B", "Exit C", "Exit D", "Exit E", "Exit F"], "platforms": ["1", "2"], "venue_id": "997998c4-4e4a-4d68-8e9b-c0f1f987d523", "bbox": [114.18510031000005, 22.374597910000034, 114.18724751000002, 22.374938610000072]}}, {"type": "Feature", "geometry": {"type": "Point", "coordinates": [114.17079481000007, 22.36392121000003]}, "properties": {"station_code": "HIK", "station_ids": ["90.0"], "name_en": "Hin Keng", "name_zh": "顯徑", "lines": ["TML"], "interchange": false, "exits": ["Exit A"], "platforms": ["1", "2"], "venue_id": "45d78f4b-7df5-4c4e-9f95-9d10f1e29b05", "bbox": [114.17032171000005, 22.36277991000003, 114.1712679100001, 22.36506251000003]}}, {"type": "Feature", "geometry": {"type": "Point", "coordinates": [114.19965357000007, 22.33063697500006]}, "properties": {"station_code": "KAT", "station_ids": ["91.0"], "name_en": "Kai Tak", "name_zh": "啟德", "lines": ["TML"], "interchange": false, "exits": ["Exit A", "Exit B1", "Exit B2", "Exit C", "Exit D"], "platforms": ["1", "2"], "venue_id": "effdfac4-ae83-47ec-990f-89eb6c6aa253", "bbox": [114.19871024000008, 22.329710160000047, 114.20059690000005, 22.331563790000075]}}, {"type": "Feature", "geometry": {"type": "Point", "coordinates": [114.19121535500005, 22.326943645000057]}, "properties": {"station_code": "SUW", "station_ids": ["92.0"], "name_en": "Sung Wong Toi", "name_zh": "宋皇臺", "lines": ["TML"], "interchange": false, "exits": ["Exit A", "Exit B1", "Exit B2", "Exit B3", "Exit D"], "platforms": ["1", "2"], "venue_id": "d47477e8-81bb-4400-943a-e2541261bf4b", "bbox": [114.18960254000001, 22.32535512000004, 114.1928281700001, 22.328532170000074]}}, {"type": "Feature", "geometry": {"type": "Point", "coordinates": [114.18753232000006, 22.31693520500005]}, "properties": {"station_code": "TKW", "station_ids": ["93.0"], "name_en": "To Kwa Wan", "name_zh": "土瓜灣", "lines": ["TML"], "interchange": false, "exits": ["Exit A", "Exit B", "Exit C", "Exit D1", "Exit D2"], "platforms": ["1", "2"], "venue_id": "bbcde31e-3b2d-46e5-9eca-dbc2ce387162", "bbox": [114.18706702000009, 22.315164070000037, 114.18799762000003, 22.318706340000062]}}, {"type": "Feature", "geometry": {"type": "Point", "coordinates": [114.17389332500005, 22.296206185000045]}, "properties": {"station_code": "ETS", "station_ids": ["80.0"], "name_en": "East Tsim Sha Tsui", "name_zh": "尖東", "lines": ["TML"], "interchange": false, "exits": ["Exit J", "Exit K", "Exit L1", "Exit L3", "Exit L4", "Exit L5", "Exit L6", "Exit N1", "Exit N2", "Exit N3", "Exit N4", "Exit N5", "Exit P1", "Exit P2", "Exit P3"], "platforms": ["1", "2"], "venue_id": "ab544cf5-d41c-499b-9c2a-56e7796e9742", "bbox": [114.17030646, 22.294635520000043, 114.1774801900001, 22.297776850000048]}}, {"type": "Feature", "geometry": {"type": "Point", "coordinates": [114.16666587000003, 22.304470190000046]}, "properties": {"station_code": "AUS", "station_ids": ["111.0"], "name_en": "Austin", "name_zh": "柯士甸", "lines": ["TML"], "interchange": false, "exits": ["Exit A", "Exit B1", "Exit B2", "Exit B3", "Exit B4", "Exit B5", "Exit C", "Exit D1", "Exit D2", "Exit D3", "Exit D4", "Exit E", "Exit F"], "platforms": ["1", "2"], "venue_id": "ef0fd18f-e9dd-480c-abc1-0eeaca4e9334", "bbox": [114.16556486000002, 22.30283669000005, 114.16776688000004, 22.306103690000043]}}, {"type": "Feature", "geometry": {"type": "Point", "coordinates": [114.15382552000005, 22.326465340000055]}, "properties": {"station_code": "NAC", "station_ids": ["53.0"], "name_en": "Nam Cheong", "name_zh": "南昌", "lines": ["TCL", "TML"], "interchange": true, "exits": ["Exit A1", "Exit A2", "Exit B", "Exit C", "Exit D1", "Exit D2"], "platforms": ["1", "2", "3", "4"], "venue_id": "ec16c323-c77f-4f76-a6ba-2a9a65fe7937", "bbox": [114.15228078000007, 22.324952000000053, 114.15537026000004, 22.327978680000058]}}, {"type": "Feature", "geometry": {"type": "Point", "coordinates": [114.13840077000003, 22.338304640000075]}, "properties": {"station_code": "MEF", "station_ids": ["20.0"], "name_en": "Mei Foo", "name_zh": "美孚", "lines": ["TML", "TWL"], "interchange": true, "exits": ["Exit A", "Exit B", "Exit C1", "Exit C2", "Exit D", "Exit E", "Exit F", "Exit G"], "platforms": ["1", "2"], "venue_id": "6c1ffd3a-3613-4bd8-a901-32636005f378", "bbox": [114.13628797000001, 22.336595680000073, 114.14051357000005, 22.340013600000077]}}, {"type": "Feature", "geometry": {"type": "Point", "coordinates": [114.1099668600001, 22.368066510000034]}, "properties": {"station_code": "TWW", "station_ids": ["114.0"], "name_en": "Tsuen Wan West", "name_zh": "荃灣西", "lines": ["TML"], "interchange": false, "exits": ["EXIT C5", "Exit A1", "Exit A2", "Exit B1", "Exit B2", "Exit C1", "Exit C2", "Exit C3", "Exit C4", "Exit C5", "Exit D", "Exit E1", "Exit E2"], "platforms": ["1", "2"], "venue_id": "552c1b98-6fc4-4788-9ff8-e1d858f293a4", "bbox": [114.1084721100001, 22.36661601000003, 114.1114616100001, 22.36951701000004]}}, {"type": "Feature", "geometry": {"type": "Point", "coordinates": [114.06342001000007, 22.434798010000037]}, "properties": {"station_code": "KSR", "station_ids": ["115.0"], "name_en": "Kam Sheung Road", "name_zh": "錦上路", "lines": ["TML"], "interchange": false, "exits": ["Exit A", "Exit B", "Exit C", "Exit D"], "platforms": ["1", "2"], "venue_id": "271f334b-c6f4-4249-b6cd-460dc9f605a9", "bbox": [114.06253831000004, 22.433643610000047, 114.06430171000011, 22.435952410000027]}}, {"type": "Feature", "geometry": {"type": "Point", "coordinates": [114.03530996000006, 22.446250760000055]}, "properties": {"station_code": "YUL", "station_ids": ["116.0"], "name_en": "Yuen Long", "name_zh": "元朗", "lines": ["TML"], "interchange": false, "exits": ["Exit (Long Yat Road)", "Exit A", "Exit B", "Exit C", "Exit E", "Exit F", "Exit G1", "Exit G2", "Exit H", "Exit J", "Exit K"], "platforms": ["1", "2"], "venue_id": "bfc60c05-4e91-4b0a-96d9-e596e807a2bb", "bbox": [114.03336081000009, 22.445761910000044, 114.03725911000004, 22.446739610000066]}}, {"type": "Feature", "geometry": {"type": "Point", "coordinates": [114.02542286000005, 22.447772620000052]}, "properties": {"station_code": "LOP", "station_ids": ["117.0"], "name_en": "Long Ping", "name_zh": "朗屏", "lines": ["TML"], "interchange": false, "exits": ["Exit A", "Exit B1", "Exit B2", "Exit C", "Exit D", "Exit E", "Exit F"], "platforms": ["1", "2"], "venue_id": "e6627058-6093-44ce-b1f1-0412eae640ed", "bbox": [114.02346941000008, 22.447497010000063, 114.02737631000002, 22.44804823000004]}}, {"type": "Feature", "geometry": {"type": "Point", "coordinates": [114.00462071000004, 22.44803151000005]}, "properties": {"station_code": "TIS", "station_ids": ["118.0"], "name_en": "Tin Shui Wai", "name_zh": "天水圍", "lines": ["TML"], "interchange": false, "exits": ["Exit A", "Exit B", "Exit C", "Exit D", "Exit E1", "Exit E2", "Exit E3"], "platforms": ["1", "2"], "venue_id": "b62f4857-8453-44a9-a650-3a8bcb08a405", "bbox": [114.00284091000003, 22.446245910000073, 114.00640051000005, 22.449817110000026]}}, {"type": "Feature", "geometry": {"type": "Point", "coordinates": [113.97872616000006, 22.412099110000042]}, "properties": {"station_code": "SIH", "station_ids": ["119.0"], "name_en": "Siu Hong", "name_zh": "兆康", "lines": ["TML"], "interchange": false, "exits": ["Exit A", "Exit B1", "Exit B2", "Exit C1", "Exit C2", "Exit C3", "Exit D", "Exit E", "Exit F"], "platforms": ["1", "2"], "venue_id": "eaa66bea-059b-4cdc-883f-a4ac85d67785", "bbox": [113.9775850100001, 22.409624310000027, 113.97986731000003, 22.41457391000006]}}, {"type": "Feature", "geometry": {"type": "Point", "coordinates": [113.97316196000008, 22.395228510000067]}, "properties": {"station_code": "TUM", "station_ids": ["120.0"], "name_en": "Tuen Mun", "name_zh": "屯門", "lines": ["TML"], "interchange": false, "exits": ["Exit A", "Exit B", "Exit C1", "Exit C2", "Exit C3", "Exit D", "Exit E", "Exit F1", "Exit F2"], "platforms": ["1", "2"], "venue_id": "be57a185-148f-4c73-a5cc-bebdcab61954", "bbox": [113.9725079100001, 22.39325271000007, 113.97381601000006, 22.397204310000063]}}, {"type": "Feature", "geometry": {"type": "Point", "coordinates": [113.94152786000006, 22.289341660000048]}, "properties": {"station_code": "TUC", "station_ids": ["43.0"], "name_en": "Tung Chung", "name_zh": "東涌", "lines": ["TCL"], "interchange": false, "exits": ["Exit A", "Exit B", "Exit C", "Exit D"], "platforms": ["1", "2"], "venue_id": "c270ead6-7bea-4034-90f5-aca854937177", "bbox": [113.94055621000007, 22.288592110000025, 113.94249951000006, 22.29009121000007]}}, {"type": "Feature", "geometry": {"type": "Point", "coordinates": [114.12615942000008, 22.348323660000034]}, "properties": {"station_code": "LAK", "station_ids": ["21.0"], "name_en": "Lai King", "name_zh": "茘景", "lines": ["TCL", "TWL"], "interchange": true, "exits": ["Exit A1", "Exit A2", "Exit A3", "Exit B", "Exit C"], "platforms": ["1", "2", "3", "4"], "venue_id": "91cc7d2f-242a-40df-aff3-3eb94f6b0663", "bbox": [114.12540922000005, 22.347392110000044, 114.1269096200001, 22.349255210000024]}}, {"type": "Feature", "geometry": {"type": "Point", "coordinates": [114.16018304500005, 22.317803595000072]}, "properties": {"station_code": "OLY", "station_ids": ["41.0"], "name_en": "Olympic", "name_zh": "奧運", "lines": ["TCL"], "interchange": false, "exits": ["Exit A1", "Exit A2", "Exit B", "Exit C1", "Exit C2", "Exit C3", "Exit C4", "Exit C5", "Exit D1", "Exit D2", "Exit D3", "Exit E"], "platforms": ["1", "2"], "venue_id": "6d02d36d-e711-456d-b797-f999d52912da", "bbox": [114.1590361000001, 22.316685300000074, 114.16132999000001, 22.31892189000007]}}, {"type": "Feature", "geometry": {"type": "Point", "coordinates": [114.25776386000007, 22.322717410000052]}, "properties": {"station_code": "POA", "station_ids": ["52.0"], "name_en": "Po Lam", "name_zh": "寶琳", "lines": ["TKL"], "interchange": false, "exits": ["Exit A1", "Exit A2", "Exit B1", "Exit B2", "Exit B3", "Exit C"], "platforms": ["0"], "venue_id": "7442ca0c-914a-4c29-af44-6622c59f01c9", "bbox": [114.25662281000007, 22.321340510000027, 114.25890491000007, 22.324094310000078]}}, {"type": "Feature", "geometry": {"type": "Point", "coordinates": [114.26416601000005, 22.315828460000063]}, "properties": {"station_code": "HAH", "station_ids": ["51.0"], "name_en": "Hang Hau", "name_zh": "坑口", "lines": ["TKL"], "interchange": false, "exits": ["Exit A1", "Exit A2", "Exit B1", "Exit B2"], "platforms": ["1", "2"], "venue_id": "132e2ae5-06f4-4829-ab02-9e0e6d8051e2", "bbox": [114.26326901000004, 22.314698410000062, 114.26506301000006, 22.316958510000063]}}, {"type": "Feature", "geometry": {"type": "Point", "coordinates": [114.25989941000006, 22.30736556000005]}, "properties": {"station_code": "TKO", "station_ids": ["50.0"], "name_en": "Tseung Kwan O", "name_zh": "將軍澳", "lines": ["TKL"], "interchange": false, "exits": ["Exit A1", "Exit A2", "Exit B1", "Exit B2", "Exit C"], "platforms": ["1", "2"], "venue_id": "e0b46dd5-03c0-47b9-bca8-5a0e3e7d8a23", "bbox": [114.25825051000004, 22.306709710000064, 114.26154831000008, 22.308021410000038]}}, {"type": "Feature", "geometry": {"type": "Point", "coordinates": [114.26865198500008, 22.295492030000048]}, "properties": {"station_code": "LHP", "station_ids": ["57.0"], "name_en": "LOHAS Park", "name_zh": "康城", "lines": ["TKL"], "interchange": false, "exits": ["Exit B", "Exit C1", "Exit C2"], "platforms": ["1", "2"], "venue_id": "7280940d-7246-4f8a-b3b5-30f6c285bc9a", "bbox": [114.26716223000005, 22.294341230000043, 114.2701417400001, 22.296642830000053]}}, {"type": "Feature", "geometry": {"type": "Point", "coordinates": [114.11782741000007, 22.373614610000033]}, "properties": {"station_code": "TSW", "station_ids": ["25.0"], "name_en": "Tsuen Wan", "name_zh": "荃灣", "lines": ["TWL"], "interchange": false, "exits": ["Exit A1", "Exit A2", "Exit A3", "Exit A4", "Exit B1", "Exit B2", "Exit B3", "Exit C", "Exit D", "Exit E"], "platforms": ["1", "2"], "venue_id": "4f355998-ea7a-4867-aae7-f587ad4aff66", "bbox": [114.11645411000006, 22.372988810000038, 114.11920071000009, 22.374240410000027]}}, {"type": "Feature", "geometry": {"type": "Point", "coordinates": [114.12503910000004, 22.370817550000055]}, "properties": {"station_code": "TWH", "station_ids": ["24.0"], "name_en": "Tai Wo Hau", "name_zh": "大窩口", "lines": ["TWL"], "interchange": false, "exits": ["Exit A", "Exit B"], "platforms": ["1", "2"], "venue_id": "0197b9ac-84d4-4683-8167-88507df0e5c2", "bbox": [114.12366652000003, 22.370608290000064, 114.12641168000005, 22.371026810000046]}}, {"type": "Feature", "geometry": {"type": "Point", "coordinates": [114.13135901000004, 22.363169210000052]}, "properties": {"station_code": "KWH", "station_ids": ["23.0"], "name_en": "Kwai Hing", "name_zh": "葵興", "lines": ["TWL"], "interchange": false, "exits": ["Exit A", "Exit B", "Exit C", "Exit D", "Exit E"], "platforms": ["1", "2"], "venue_id": "c660346a-064e-42d4-8501-7bb5cd7e893f", "bbox": [114.13103961000002, 22.362257210000053, 114.13167841000006, 22.36408121000005]}}, {"type": "Feature", "geometry": {"type": "Point", "coordinates": [114.12780741000006, 22.356847360000046]}, "properties": {"station_code": "KWF", "station_ids": ["22.0"], "name_en": "Kwai Fong", "name_zh": "葵芳", "lines": ["TWL"], "interchange": false, "exits": ["Exit A", "Exit B", "Exit C", "Exit D", "Exit E"], "platforms": ["1", "2"], "venue_id": "45701b21-f750-4213-9cd4-299e6c9820bc", "bbox": [114.12714571000004, 22.356038210000065, 114.12846911000008, 22.357656510000027]}}, {"type": "Feature", "geometry": {"type": "Point", "coordinates": [114.14806889500005, 22.336561355000043]}, "properties": {"station_code": "LCK", "station_ids": ["19.0"], "name_en": "Lai Chi Kok", "name_zh": "茘枝角", "lines": ["TWL"], "interchange": false, "exits": ["Exit A", "Exit B1", "Exit B2", "Exit C", "Exit D1", "Exit D2", "Exit D3", "Exit D4"], "platforms": ["1", "2"], "venue_id": "650c8e58-3503-4fb5-9706-ba4a955f498a", "bbox": [114.14676656000006, 22.335283540000034, 114.14937123000004, 22.337839170000052]}}, {"type": "Feature", "geometry": {"type": "Point", "coordinates": [114.15642247500006, 22.335389320000047]}, "properties": {"station_code": "CSW", "station_ids": ["18.0"], "name_en": "Cheung Sha Wan", "name_zh": "長沙灣", "lines": ["TWL"], "interchange": false, "exits": ["Exit A1", "Exit A2", "Exit A3", "Exit B", "Exit C1", "Exit C2"], "platforms": ["1", "2"], "venue_id": "836c4e6e-6c55-4a06-8d11-0f053c6e060c", "bbox": [114.15500796000003, 22.334274410000035, 114.15783699000008, 22.33650423000006]}}, {"type": "Feature", "geometry": {"type": "Point", "coordinates": [114.16228110000009, 22.330757910000045]}, "properties": {"station_code": "SSP", "station_ids": ["17.0"], "name_en": "Sham Shui Po", "name_zh": "深水埗", "lines": ["TWL"], "interchange": false, "exits": ["Exit A1", "Exit A2", "Exit B1", "Exit B2", "Exit C1", "Exit C2", "Exit D1", "Exit D2"], "platforms": ["1", "2"], "venue_id": "058fd3b2-9bcf-48dd-b641-8c2465739e0e", "bbox": [114.16123620000008, 22.329924340000048, 114.1633260000001, 22.331591480000043]}}, {"type": "Feature", "geometry": {"type": "Point", "coordinates": [114.17170658000009, 22.304851050000053]}, "properties": {"station_code": "JOR", "station_ids": ["4.0"], "name_en": "Jordan", "name_zh": "佐敦", "lines": ["TWL"], "interchange": false, "exits": ["Exit A", "Exit B1", "Exit B2", "Exit C1", "Exit C2", "Exit D", "Exit E"], "platforms": ["1", "2"], "venue_id": "e1c20a8c-bfe8-4159-957e-829c4cd1bde3", "bbox": [114.17114908000008, 22.303757000000076, 114.1722640800001, 22.30594510000003]}}, {"type": "Feature", "geometry": {"type": "Point", "coordinates": [114.17237716500006, 22.297295045000055]}, "properties": {"station_code": "TST", "station_ids": ["3.0"], "name_en": "Tsim Sha Tsui", "name_zh": "尖沙咀", "lines": ["TWL"], "interchange": false, "exits": ["Exit A1", "Exit A2", "Exit B1", "Exit B2", "Exit C1", "Exit C2", "Exit D1", "Exit D2", "Exit D3", "Exit E", "Exit H", "Exit R"], "platforms": ["1", "2"], "venue_id": "2478fc07-c370-4aab-b1e3-ccb129865bbf", "bbox": [114.17168661000005, 22.295647450000047, 114.17306772000006, 22.298942640000064]}}, {"type": "Feature", "geometry": {"type": "Point", "coordinates": [114.17437727500004, 22.248594415000042]}, "properties": {"station_code": "OCP", "station_ids": ["86.0"], "name_en": "Ocean Park", "name_zh": "海洋公園", "lines": ["SIL"], "interchange": false, "exits": ["Exit A", "Exit B", "Exit C"], "platforms": ["1", "2"], "venue_id": "1dcb1c5f-c7a1-428c-bf81-9d9ffc36725c", "bbox": [114.17375927, 22.248095000000035, 114.17499528000008, 22.24909383000005]}}, {"type": "Feature", "geometry": {"type": "Point", "coordinates": [114.16757552500002, 22.248241380000053]}, "properties": {"station_code": "WCH", "station_ids": ["87.0"], "name_en": "Wong Chuk Hang", "name_zh": "黃竹坑", "lines": ["SIL"], "interchange": false, "exits": ["Exit A1", "Exit A2", "Exit B", "Exit C"], "platforms": ["1", "2"], "venue_id": "2b6f740c-7f25-4893-8e13-c0e66714f3f4", "bbox": [114.16613252000002, 22.24760038000005, 114.16901853000002, 22.248882380000055]}}, {"type": "Feature", "geometry": {"type": "Point", "coordinates": [114.15601096000006, 22.242199940000063]}, "properties": {"station_code": "LET", "station_ids": ["88.0"], "name_en": "Lei Tung", "name_zh": "利東", "lines": ["SIL"], "interchange": false, "exits": ["Exit A1", "Exit A2", "Exit B"], "platforms": ["1", "2"], "venue_id": "2b58c53b-8b8d-4d72-9b69-dfc67f4d82ce", "bbox": [114.15526736000004, 22.24070751000005, 114.15675456000008, 22.243692370000076]}}, {"type": "Feature", "geometry": {"type": "Point", "coordinates": [114.14903235000003, 22.242483195000062]}, "properties": {"station_code": "SOH", "station_ids": ["89.0"], "name_en": "South Horizons", "name_zh": "海怡半島", "lines": ["SIL"], "interchange": false, "exits": ["Exit A", "Exit B", "Exit C"], "platforms": ["2"], "venue_id": "60a9aeee-30ac-4efc-95de-dfb220c8808a", "bbox": [114.14816322000001, 22.241459900000052, 114.14990148000004, 22.243506490000073]}}]}